NORAD_CAT_ID,OBJECT_NAME,OBJECT_TYPE,EPOCH,MEAN_MOTION,ECCENTRICITY,INCLINATION,RA_OF_ASC_NODE,ARG_OF_PERICENTER,MEAN_ANOMALY,BSTAR,MEAN_MOTION_DOT,MEAN_MOTION_DDOT,TLE_LINE0,TLE_LINE1,TLE_LINE2,SEMIMAJOR_AXIS,PERIOD,APOGEE,PERIGEE,DECAYED
55750.0,STARLINK-5573,PAYLOAD,2023-03-18 22:00:00,15.74930045,0.0003649,70.0002,112.6281,275.7009,48.6948,-0.0066849,-0.00895573,0.0,0 STARLINK-5573,1 55750U 23028K   23077.91667824 -.00895573  00000-0 -66849-2 0  9993,2 55750  70.0002 112.6281 0003649 275.7009  48.6948 15.74930045  3040,6722.967,91.433,347.285,342.379,0.0
55750.0,STARLINK-5573,PAYLOAD,2023-03-19 14:00:01,15.74062285,0.0003308,69.9935,110.7324,276.1201,225.5301,0.0003999,0.00057409,0.0,0 STARLINK-5573,1 55750U 23028K   23078.58334491  .00057409  00000-0  39990-3 0  9992,2 55750  69.9935 110.7324 0003308 276.1201 225.5301 15.74062285  3153,6725.438,91.483,349.528,345.078,0.0
55750.0,STARLINK-5573,PAYLOAD,2023-03-19 22:00:00,15.74061014,0.0003317,69.9935,109.789,269.3036,320.6803,0.00078482,0.00113631,0.0,0 STARLINK-5573,1 55750U 23028K   23078.91667824  .00113631  00000-0  78482-3 0  9997,2 55750  69.9935 109.7890 0003317 269.3036 320.6803 15.74061014  1307,6725.442,91.483,349.537,345.076,0.0
55750.0,STARLINK-5573,PAYLOAD,2023-03-20 06:00:00,15.72344877,0.0003676,69.9934,108.851,271.3991,44.0858,-0.0079315,-0.00944661,0.0,0 STARLINK-5573,1 55750U 23028K   23079.25001157 -.00944661  00000-0 -79315-2 0  9998,2 55750  69.9934 108.8510 0003676 271.3991  44.0858 15.72344877  3258,6730.334,91.583,354.673,349.725,0.0
55750.0,STARLINK-5573,PAYLOAD,2023-03-20 14:00:01,15.71692952,0.0003712,69.9929,107.9107,279.4952,121.8007,-0.0079753,-0.0092601,0.0,0 STARLINK-5573,1 55750U 23028K   23079.58334491 -.00926010  00000-0 -79753-2 0  9998,2 55750  69.9929 107.9107 0003712 279.4952 121.8007 15.71692952  1304,6732.195,91.621,356.559,351.561,0.0
55750.0,STARLINK-5573,PAYLOAD,2023-03-20 22:00:01,15.70982049,0.0003427,69.9935,106.9716,274.2687,212.1486,-0.0072865,-0.00830452,0.0,0 STARLINK-5573,1 55750U 23028K   23079.91668981 -.00830452  00000-0 -72865-2 0  9990,2 55750  69.9935 106.9716 0003427 274.2687 212.1486 15.70982049  3368,6734.226,91.662,358.399,353.783,0.0
55750.0,STARLINK-5573,PAYLOAD,2023-03-21 14:00:01,15.6991959,0.0003204,69.9965,105.0953,280.6868,13.4883,2.0583e-05,2.262e-05,0.0,0 STARLINK-5573,1 55750U 23028K   23080.58335648  .00002262  00000-0  20583-4 0  9996,2 55750  69.9965 105.0953 0003204 280.6868  13.4883 15.69919590  3462,6737.264,91.724,361.288,356.97,0.0
55750.0,STARLINK-5573,PAYLOAD,2023-03-21 22:00:00,15.6987559,0.0003145,69.9988,104.1579,270.1072,107.3547,0.00074659,0.00090346,0.0,0 STARLINK-5573,1 55750U 23028K   23080.91667824  .00090346  00000-0  74659-3 0  9999,2 55750  69.9988 104.1579 0003145 270.1072 107.3547 15.69875590  1308,6737.39,91.727,361.374,357.136,0.0
55750.0,STARLINK-5573,PAYLOAD,2023-03-22 22:00:00,15.69846354,0.0003274,70.0005,101.3461,267.4386,0.0418,0.0011622,0.00141454,0.0,0 STARLINK-5573,1 55750U 23028K   23081.91667824  .00141454  00000-0  11622-2 0  9997,2 55750  70.0005 101.3461 0003274 267.4386   0.0418 15.69846354  3674,6737.474,91.729,361.544,357.133,0.0
55750.0,STARLINK-5573,PAYLOAD,2023-03-23 06:00:00,15.69921953,0.0003318,70.001,100.4089,269.6476,81.1176,-3.6343e-05,-4.58e-05,0.0,0 STARLINK-5573,1 55750U 23028K   23082.25001157 -.00004580  00000-0 -36343-4 0  9995,2 55750  70.0010 100.4089 0003318 269.6476  81.1176 15.69921953  3736,6737.257,91.724,361.358,356.887,0.0
55750.0,STARLINK-5573,PAYLOAD,2023-03-23 14:00:01,15.69968106,0.0003315,70.0005,99.4716,272.9528,161.1995,-0.00049725,-0.00059688,0.0,0 STARLINK-5573,1 55750U 23028K   23082.58335648 -.00059688  00000-0 -49725-3 0  9992,2 55750  70.0005  99.4716 0003315 272.9528 161.1995 15.69968106  1306,6737.125,91.722,361.224,356.757,0.0
55750.0,STARLINK-5573,PAYLOAD,2023-03-24 17:00:11,15.70070888,0.0003442,70.0005,96.3084,270.3394,40.6881,-0.0056863,-0.00638287,0.0,0 STARLINK-5573,1 55750U 23028K   23083.70846065 -.00638287  00000-0 -56863-2 0  9995,2 55750  70.0005  96.3084 0003442 270.3394  40.6881 15.70070888  3955,6736.831,91.716,361.015,356.377,0.0
55750.0,STARLINK-5573,PAYLOAD,2023-03-24 22:00:01,15.69861494,0.0003591,70.0007,95.7236,269.4247,138.096,-0.0080693,-0.00873006,0.0,0 STARLINK-5573,1 55750U 23028K   23083.91668981 -.00873006  00000-0 -80693-2 0  9995,2 55750  70.0007  95.7236 0003591 269.4247 138.0960 15.69861494  1306,6737.43,91.728,361.715,356.876,0.0
55750.0,STARLINK-5573,PAYLOAD,2023-03-25 03:55:00,15.69524959,0.0003019,70.0009,95.0299,274.6035,85.4816,-0.00012717,-0.00015224,0.0,0 STARLINK-5573,1 55750U 23028K   23084.16320262 -.00015224  00000-0 -12717-3 0  9993,2 55750  70.0009  95.0299 0003019 274.6035  85.4816 15.69524959  4038,6738.393,91.748,362.293,358.224,0.0
55750.0,STARLINK-5573,PAYLOAD,2023-03-25 10:02:02,15.69799716,0.0003249,70.0008,94.3138,277.8469,82.2357,-0.0001048,-0.0001273,0.0,0 STARLINK-5573,1 55750U 23028K   23084.41808475 -.00012730  00000-0 -10480-3 0  9992,2 55750  70.0008  94.3138 0003249 277.8469  82.2357 15.69799716  4076,6737.607,91.731,361.661,357.283,0.0
55750.0,STARLINK-5573,PAYLOAD,2023-03-25 23:47:50,15.69851373,0.0008701,70.001,92.7019,236.112,123.9249,0.00019232,0.00022945,0.0,0 STARLINK-5573,1 55750U 23028K   23084.99155290  .00022945  00000-0  19232-3 0  9996,2 55750  70.0010  92.7019 0008701 236.1120 123.9249 15.69851373  4160,6737.459,91.728,365.186,353.462,0.0
55750.0,STARLINK-5573,PAYLOAD,2023-03-26 14:00:01,15.66646662,0.0003572,70.0008,91.0503,276.8069,177.1767,-0.010278,-0.00979092,0.0,0 STARLINK-5573,1 55750U 23028K   23085.58334491 -.00979092  00000-0 -10278-1 0  9999,2 55750  70.0008  91.0503 0003572 276.8069 177.1767 15.66646662  4257,6746.644,91.916,370.919,366.099,0.0
55750.0,STARLINK-5573,PAYLOAD,2023-03-26 22:00:01,15.65946661,0.0003317,70.001,90.1184,268.3643,264.6569,-0.0095081,-0.00888693,0.0,0 STARLINK-5573,1 55750U 23028K   23085.91668981 -.00888693  00000-0 -95081-2 0  9992,2 55750  70.0010  90.1184 0003317 268.3643 264.6569 15.65946661  4305,6748.655,91.957,372.758,368.281,0.0
55750.0,STARLINK-5573,PAYLOAD,2023-03-27 14:00:01,15.64680623,0.0003382,70.0011,88.2569,272.0347,56.4881,-0.010992,-0.00968498,0.0,0 STARLINK-5573,1 55750U 23028K   23086.58334491 -.00968498  00000-0 -10992-1 0  9991,2 55750  70.0011  88.2569 0003382 272.0347  56.4881 15.64680623  4403,6752.294,92.032,376.443,371.876,0.0
55750.0,STARLINK-5573,PAYLOAD,2023-03-27 22:00:00,15.63996766,0.000339,70.0012,87.3277,267.2456,137.8951,-0.010405,-0.00898734,0.0,0 STARLINK-5573,1 55750U 23028K   23086.91667824 -.00898734  00000-0 -10405-1 0  9991,2 55750  70.0012  87.3277 0003390 267.2456 137.8951 15.63996766  1301,6754.263,92.072,378.417,373.838,0.0
55750.0,STARLINK-5573,PAYLOAD,2023-03-28 06:00:00,15.63318886,0.0003275,70.001,86.3994,272.3041,208.6844,-0.010439,-0.00879559,0.0,0 STARLINK-5573,1 55750U 23028K   23087.25001157 -.00879559  00000-0 -10439-1 0  9991,2 55750  70.0010  86.3994 0003275 272.3041 208.6844 15.63318886  4518,6756.215,92.112,380.293,375.867,0.0
55750.0,STARLINK-5573,PAYLOAD,2023-03-28 14:00:01,15.62719009,0.0003136,70.0009,85.4718,271.9545,284.0637,-0.011784,-0.00961389,0.0,0 STARLINK-5573,1 55750U 23028K   23087.58334491 -.00961389  00000-0 -11784-1 0  9994,2 55750  70.0009  85.4718 0003136 271.9545 284.0637 15.62719009  1303,6757.944,92.147,381.928,377.69,0.0
55750.0,STARLINK-5573,PAYLOAD,2023-03-28 22:00:00,15.62047901,0.0003342,70.0011,84.5451,262.9374,7.3485,-0.011406,-0.00911321,0.0,0 STARLINK-5573,1 55750U 23028K   23087.91667824 -.00911321  00000-0 -11406-1 0  9992,2 55750  70.0011  84.5451 0003342 262.9374   7.3485 15.62047901  1301,6759.879,92.187,384.003,379.485,0.0
55750.0,STARLINK-5573,PAYLOAD,2023-03-29 14:00:01,15.60762096,0.0003561,70.0009,82.6946,274.6772,141.7946,-0.012699,-0.00960349,0.0,0 STARLINK-5573,1 55750U 23028K   23088.58334491 -.00960349  00000-0 -12699-1 0  9996,2 55750  70.0009  82.6946 0003561 274.6772 141.7946 15.60762096  4722,6763.591,92.263,387.865,383.048,0.0
55750.0,STARLINK-5573,PAYLOAD,2023-03-29 22:00:00,15.60091139,0.0003293,70.001,81.7706,268.6954,219.696,-0.012289,-0.00910362,0.0,0 STARLINK-5573,1 55750U 23028K   23088.91667824 -.00910362  00000-0 -12289-1 0  9997,2 55750  70.0010  81.7706 0003293 268.6954 219.6960 15.60091139  1300,6765.531,92.302,389.623,385.168,0.0
55750.0,STARLINK-5573,PAYLOAD,2023-03-30 06:00:00,15.59407633,0.0003274,70.0009,80.8476,271.9782,287.5702,-0.012154,-0.00879939,0.0,0 STARLINK-5573,1 55750U 23028K   23089.25001157 -.00879939  00000-0 -12154-1 0  9991,2 55750  70.0009  80.8476 0003274 271.9782 287.5702 15.59407633  4823,6767.507,92.343,391.588,387.157,0.0
55750.0,STARLINK-5573,PAYLOAD,2023-03-30 22:00:00,15.58139096,0.0003556,70.0011,79.0044,265.6497,73.808,-0.013353,-0.00917694,0.0,0 STARLINK-5573,1 55750U 23028K   23089.91667824 -.00917694  00000-0 -13353-1 0  9996,2 55750  70.0011  79.0044 0003556 265.6497  73.8080 15.58139096  4923,6771.18,92.418,395.453,390.637,0.0
55750.0,STARLINK-5573,PAYLOAD,2023-03-31 22:00:00,15.5618279,0.0003432,70.0007,76.2456,265.3894,278.0932,-0.014411,-0.00920062,0.0,0 STARLINK-5573,1 55750U 23028K   23090.91667824 -.00920062  00000-0 -14411-1 0  9997,2 55750  70.0007  76.2456 0003432 265.3894 278.0932 15.56182790  5085,6776.854,92.534,401.044,396.393,0.0
55750.0,STARLINK-5573,PAYLOAD,2023-04-01 14:00:01,15.54889107,0.0003534,70.0004,74.411,271.5508,44.0416,-0.015835,-0.00959606,0.0,0 STARLINK-5573,1 55750U 23028K   23091.58334491 -.00959606  00000-0 -15835-1 0  9999,2 55750  70.0004  74.4110 0003534 271.5508  44.0416 15.54889107  1306,6780.612,92.611,404.873,400.081,0.0
55750.0,STARLINK-5573,PAYLOAD,2023-04-01 22:00:00,15.54227925,0.0003561,70.0007,73.4954,267.8069,112.6608,-0.015563,-0.00924036,0.0,0 STARLINK-5573,1 55750U 23028K   23091.91667824 -.00924036  00000-0 -15563-1 0  9992,2 55750  70.0007  73.4954 0003561 267.8069 112.6608 15.54227925  5240,6782.535,92.651,406.815,401.985,0.0
